{
  "type": "FeatureCollection",
  "features": [
    {
      "type": "Feature",
      "properties": {
        "candidate_id": "DEMO_O1",
        "synthetic": true
      },
      "geometry": {
        "type": "Polygon",
        "coordinates": [
          [
            [
              29.999999999999993,
              49.99999999999998
            ],
            [
              30.01036416781121,
              49.99999999999998
            ],
            [
              30.01036416781121,
              50.01210062775624
            ],
            [
              29.999999999999993,
              50.01210062775624
            ],
            [
              29.999999999999993,
              49.99999999999998
            ]
          ]
        ]
      }
    },
    {
      "type": "Feature",
      "properties": {
        "candidate_id": "DEMO_O2",
        "synthetic": true
      },
      "geometry": {
        "type": "Polygon",
        "coordinates": [
          [
            [
              30.005182083905602,
              49.99999999999998
            ],
            [
              30.025910419528024,
              49.99999999999998
            ],
            [
              30.025910419528024,
              50.009075188375924
            ],
            [
              30.015546251716813,
              50.009075188375924
            ],
            [
              30.015546251716813,
              50.0151262555039
            ],
            [
              30.005182083905602,
              50.0151262555039
            ],
            [
              30.005182083905602,
              49.99999999999998
            ]
          ]
        ]
      }
    },
    {
      "type": "Feature",
      "properties": {
        "candidate_id": "DEMO_S1",
        "synthetic": true
      },
      "geometry": {
        "type": "Polygon",
        "coordinates": [
          [
            [
              29.999999999999993,
              49.99999999999998
            ],
            [
              30.015546251716813,
              49.99999999999998
            ],
            [
              30.015546251716813,
              50.02420426939034
            ],
            [
              29.999999999999993,
              50.02420426939034
            ],
            [
              29.999999999999993,
              49.99999999999998
            ]
          ]
        ]
      }
    },
    {
      "type": "Feature",
      "properties": {
        "candidate_id": "DEMO_ARCHIVE",
        "synthetic": true
      },
      "geometry": {
        "type": "Polygon",
        "coordinates": [
          [
            [
              29.999999999999993,
              49.99999999999998
            ],
            [
              30.01036416781121,
              49.99999999999998
            ],
            [
              30.01036416781121,
              50.01210062775624
            ],
            [
              29.999999999999993,
              50.01210062775624
            ],
            [
              29.999999999999993,
              49.99999999999998
            ]
          ]
        ]
      }
    }
  ]
}
