{
  "type": "FeatureCollection",
  "features": [
    {
      "type": "Feature",
      "properties": {
        "chip_id": "DEMO_CHIP3",
        "aoi_id": "DEMO_AOI3",
        "synthetic": true
      },
      "geometry": {
        "type": "Polygon",
        "coordinates": [
          [
            [
              29.999999999999993,
              49.99999999999998
            ],
            [
              30.026532269596693,
              49.99999999999998
            ],
            [
              30.026532269596693,
              50.03098362621564
            ],
            [
              29.999999999999993,
              50.03098362621564
            ],
            [
              29.999999999999993,
              49.99999999999998
            ]
          ]
        ]
      }
    }
  ]
}
